<?xml version="1.0" encoding="UTF-8"?>
<ndm xmlns:xsi="http://www.w3.org/2001/XMLSchema-instance" xsi:noNamespaceSchemaLocation="http://sanaregistry.org/r/ndmxml/ndmxml-1.0-master.xsd">
  <omm id="CCSDS_OMM_VERS" version="2.0">
    <header>
      <COMMENT/>
      <CREATION_DATE/>
      <ORIGINATOR/>
    </header>
    <body>
      <segment>
        <metadata>
          <COMMENT/>
          <OBJECT_NAME/>
          <OBJECT_ID>1960-002B</OBJECT_ID>
          <CENTER_NAME/>
          <REF_FRAME/>
          <REF_FRAME_EPOCH/>
          <TIME_SYSTEM/>
          <MEAN_ELEMENT_THEORY/>
        </metadata>
        <data>
          <meanElements>
            <COMMENT/>
            <EPOCH>2020-05-05T13:36:21.930336</EPOCH>
            <MEAN_MOTION>14.74353857</MEAN_MOTION>
            <ECCENTRICITY>0.0023537</ECCENTRICITY>
            <INCLINATION>48.3781</INCLINATION>
            <RA_OF_ASC_NODE>151.0121</RA_OF_ASC_NODE>
            <ARG_OF_PERICENTER>47.9747</ARG_OF_PERICENTER>
            <MEAN_ANOMALY>312.3164</MEAN_ANOMALY>
            <GM/>
          </meanElements>
          <tleParameters>
            <COMMENT/>
            <EPHEMERIS_TYPE>0</EPHEMERIS_TYPE>
            <CLASSIFICATION_TYPE>U</CLASSIFICATION_TYPE>
            <NORAD_CAT_ID>29</NORAD_CAT_ID>
            <ELEMENT_SET_NO>999</ELEMENT_SET_NO>
            <REV_AT_EPOCH>21233</REV_AT_EPOCH>
            <BSTAR>0.000011788</BSTAR>
            <MEAN_MOTION_DOT>-0.00000129</MEAN_MOTION_DOT>
            <MEAN_MOTION_DDOT>0</MEAN_MOTION_DDOT>
          </tleParameters>
        </data>
      </segment>
    </body>
  </omm>
  <omm id="CCSDS_OMM_VERS" version="2.0">
    <header>
      <COMMENT/>
      <CREATION_DATE/>
      <ORIGINATOR/>
    </header>
    <body>
      <segment>
        <metadata>
          <COMMENT/>
          <OBJECT_NAME/>
          <OBJECT_ID>1960-007A</OBJECT_ID>
          <CENTER_NAME/>
          <REF_FRAME/>
          <REF_FRAME_EPOCH/>
          <TIME_SYSTEM/>
          <MEAN_ELEMENT_THEORY/>
        </metadata>
        <data>
          <meanElements>
            <COMMENT/>
            <EPOCH>2020-05-06T02:25:50.894400</EPOCH>
            <MEAN_MOTION>14.33674851</MEAN_MOTION>
            <ECCENTRICITY>0.0257792</ECCENTRICITY>
            <INCLINATION>66.6924</INCLINATION>
            <RA_OF_ASC_NODE>132.5405</RA_OF_ASC_NODE>
            <ARG_OF_PERICENTER>344.834</ARG_OF_PERICENTER>
            <MEAN_ANOMALY>14.513</MEAN_ANOMALY>
            <GM/>
          </meanElements>
          <tleParameters>
            <COMMENT/>
            <EPHEMERIS_TYPE>0</EPHEMERIS_TYPE>
            <CLASSIFICATION_TYPE>U</CLASSIFICATION_TYPE>
            <NORAD_CAT_ID>45</NORAD_CAT_ID>
            <ELEMENT_SET_NO>999</ELEMENT_SET_NO>
            <REV_AT_EPOCH>11663</REV_AT_EPOCH>
            <BSTAR>0.000014572</BSTAR>
            <MEAN_MOTION_DOT>-5e-7</MEAN_MOTION_DOT>
            <MEAN_MOTION_DDOT>0</MEAN_MOTION_DDOT>
          </tleParameters>
        </data>
      </segment>
    </body>
  </omm>
  <omm id="CCSDS_OMM_VERS" version="2.0">
    <header>
      <COMMENT/>
      <CREATION_DATE/>
      <ORIGINATOR/>
    </header>
    <body>
      <segment>
        <metadata>
          <COMMENT/>
          <OBJECT_NAME/>
          <OBJECT_ID>1960-007B</OBJECT_ID>
          <CENTER_NAME/>
          <REF_FRAME/>
          <REF_FRAME_EPOCH/>
          <TIME_SYSTEM/>
          <MEAN_ELEMENT_THEORY/>
        </metadata>
        <data>
          <meanElements>
            <COMMENT/>
            <EPOCH>2020-05-06T02:13:44.265216</EPOCH>
            <MEAN_MOTION>14.49292861</MEAN_MOTION>
            <ECCENTRICITY>0.0208027</ECCENTRICITY>
            <INCLINATION>66.6889</INCLINATION>
            <RA_OF_ASC_NODE>160.9665</RA_OF_ASC_NODE>
            <ARG_OF_PERICENTER>164.8506</ARG_OF_PERICENTER>
            <MEAN_ANOMALY>195.8964</MEAN_ANOMALY>
            <GM/>
          </meanElements>
          <tleParameters>
            <COMMENT/>
            <EPHEMERIS_TYPE>0</EPHEMERIS_TYPE>
            <CLASSIFICATION_TYPE>U</CLASSIFICATION_TYPE>
            <NORAD_CAT_ID>46</NORAD_CAT_ID>
            <ELEMENT_SET_NO>999</ELEMENT_SET_NO>
            <REV_AT_EPOCH>13296</REV_AT_EPOCH>
            <BSTAR>0.000024408</BSTAR>
            <MEAN_MOTION_DOT>6e-8</MEAN_MOTION_DOT>
            <MEAN_MOTION_DDOT>0</MEAN_MOTION_DDOT>
          </tleParameters>
        </data>
      </segment>
    </body>
  </omm>
  <omm id="CCSDS_OMM_VERS" version="2.0">
    <header>
      <COMMENT/>
      <CREATION_DATE/>
      <ORIGINATOR/>
    </header>
    <body>
      <segment>
        <metadata>
          <COMMENT/>
          <OBJECT_NAME/>
          <OBJECT_ID>1960-007C</OBJECT_ID>
          <CENTER_NAME/>
          <REF_FRAME/>
          <REF_FRAME_EPOCH/>
          <TIME_SYSTEM/>
          <MEAN_ELEMENT_THEORY/>
        </metadata>
        <data>
          <meanElements>
            <COMMENT/>
            <EPOCH>2020-05-05T20:09:41.889024</EPOCH>
            <MEAN_MOTION>14.42084207</MEAN_MOTION>
            <ECCENTRICITY>0.0231452</ECCENTRICITY>
            <INCLINATION>66.6654</INCLINATION>
            <RA_OF_ASC_NODE>268.9662</RA_OF_ASC_NODE>
            <ARG_OF_PERICENTER>332.7776</ARG_OF_PERICENTER>
            <MEAN_ANOMALY>26.1344</MEAN_ANOMALY>
            <GM/>
          </meanElements>
          <tleParameters>
            <COMMENT/>
            <EPHEMERIS_TYPE>0</EPHEMERIS_TYPE>
            <CLASSIFICATION_TYPE>U</CLASSIFICATION_TYPE>
            <NORAD_CAT_ID>47</NORAD_CAT_ID>
            <ELEMENT_SET_NO>999</ELEMENT_SET_NO>
            <REV_AT_EPOCH>12853</REV_AT_EPOCH>
            <BSTAR>0.0000077084</BSTAR>
            <MEAN_MOTION_DOT>-7.9e-7</MEAN_MOTION_DOT>
            <MEAN_MOTION_DDOT>0</MEAN_MOTION_DDOT>
          </tleParameters>
        </data>
      </segment>
    </body>
  </omm>
</ndm>